H1 CPF  1  SGF 2022  2 22  2  5531 larets    
H2  0304206 5557    27944 2022  2 21  0  0  0 2022  2 26 23 57  0   180 1 1  0 0 0
H9
10 0 59636  28080.00000  0   -219347.440  -5736776.228   4114263.099
10 0 59636  28260.00000  0   -484854.387  -4846671.057   5114039.213
10 0 59636  28440.00000  0   -707001.111  -3774215.787   5926813.701
10 0 59636  28620.00000  0   -873490.833  -2559774.815   6523074.410
10 0 59636  28800.00000  0   -975182.101  -1249046.201   6881227.232
10 0 59636  28980.00000  0  -1006525.290    108672.576   6988324.965
10 0 59636  29160.00000  0   -965827.230   1462333.027   6840501.573
10 0 59636  29340.00000  0   -855330.457   2761037.999   6443100.179
10 0 59636  29520.00000  0   -681105.603   3955938.515   5810495.442
10 0 59636  29700.00000  0   -452762.949   5002068.494   4965612.168
10 0 59636  29880.00000  0   -182991.276   5860059.241   3939145.670
10 0 59636  30060.00000  0    113060.068   6497667.140   2768492.479
10 0 59636  30240.00000  0    418529.475   6891056.184   1496420.880
10 0 59636  30420.00000  0    715695.331   7025761.234    169499.717
10 0 59636  30600.00000  0    986887.052   6897267.351  -1163636.796
10 0 59636  30780.00000  0   1215404.194   6511178.576  -2454117.996
10 0 59636  30960.00000  0   1386392.554   5882965.684  -3654675.485
10 0 59636  31140.00000  0   1487636.369   5037307.154  -4721411.144
10 0 59636  31320.00000  0   1510225.930   4007057.494  -5615415.537
10 0 59636  31500.00000  0   1449066.798   2831905.202  -6304169.489
10 0 59636  31680.00000  0   1303208.031   1556791.488  -6762687.056
10 0 59636  31860.00000  0   1075978.740    230164.238  -6974369.891
10 0 59636  32040.00000  0    774930.357  -1097864.883  -6931565.346
10 0 59636  32220.00000  0    411584.759  -2377399.466  -6635816.714
10 0 59636  32400.00000  0       999.862  -3560609.618  -6097811.975
10 0 59636  32580.00000  0   -438838.085  -4603514.121  -5337032.978
10 0 59636  32760.00000  0   -887774.265  -5467631.512  -4381097.531
10 0 59636  32940.00000  0  -1324373.159  -6121442.866  -3264807.341
10 0 59636  33120.00000  0  -1726900.442  -6541603.105  -2028915.489
10 0 59636  33300.00000  0  -2074353.697  -6713841.892   -718648.399
10 0 59636  33480.00000  0  -2347491.358  -6633503.090    617970.943
10 0 59636  33660.00000  0  -2529806.068  -6305683.353   1931928.090
10 0 59636  33840.00000  0  -2608389.671  -5744959.015   3175067.520
10 0 59636  34020.00000  0  -2574641.019  -4974716.419   4301901.879
10 0 59636  34200.00000  0  -2424781.078  -4026128.112   5271296.317
10 0 59636  34380.00000  0  -2160155.574  -2936835.513   6047962.840
10 0 59636  34560.00000  0  -1787310.586  -1749404.332   6603711.085
10 0 59636  34740.00000  0  -1317841.031   -509633.676   6918422.078
10 0 59636  34920.00000  0   -768025.875    735218.209   6980726.015
10 0 59636  35100.00000  0   -158264.831   1938221.853   6788377.819
10 0 59636  35280.00000  0    487672.696   3054528.072   6348332.514
10 0 59636  35460.00000  0   1143562.000   4043027.957   5676513.070
10 0 59636  35640.00000  0   1781769.966   4867872.349   4797276.838
10 0 59636  35820.00000  0   2374402.776   5499801.386   3742583.413
10 0 59636  36000.00000  0   2894512.192   5917229.389   2550879.429
10 0 59636  36180.00000  0   3317309.471   6107044.544   1265720.481
10 0 59636  36360.00000  0   3621323.834   6065063.845    -65833.704
10 0 59636  36540.00000  0   3789444.279   5796116.684  -1394975.590
10 0 59636  36720.00000  0   3809792.316   5313751.233  -2672984.961
10 0 59636  36900.00000  0   3676376.809   4639577.381  -3853062.478
10 0 59636  37080.00000  0   3389493.015   3802279.025  -4892076.948
10 0 59636  37260.00000  0   2955850.742   2836356.685  -5752147.665
10 0 59636  37440.00000  0   2388430.400   1780666.415  -6402005.248
10 0 59636  37620.00000  0   1706077.709    676827.219  -6818084.781
10 0 59636  37800.00000  0    932861.779   -432428.393  -6985327.145
10 0 59636  37980.00000  0     97219.283  -1504900.606  -6897684.956
10 0 59636  38160.00000  0   -769087.121  -2500510.615  -6558319.462
10 0 59636  38340.00000  0  -1632161.358  -3382782.850  -5979498.320
10 0 59636  38520.00000  0  -2457285.108  -4120182.405  -5182187.462
10 0 59636  38700.00000  0  -3210305.769  -4687263.046  -4195344.604
10 0 59636  38880.00000  0  -3859056.017  -5065584.995  -3054915.568
10 0 59636  39060.00000  0  -4374740.402  -5244356.128  -1802554.862
10 0 59636  39240.00000  0  -4733226.519  -5220764.469   -484108.048
10 0 59636  39420.00000  0  -4916171.487  -4999979.283    852091.831
10 0 59636  39600.00000  0  -4911921.161  -4594814.617   2157043.744
10 0 59636  39780.00000  0  -4716129.498  -4025066.457   3382930.296
10 0 59636  39960.00000  0  -4332066.929  -3316562.262   4484910.418
10 0 59636  40140.00000  0  -3770605.754  -2499977.814   5422776.637
10 0 59636  40320.00000  0  -3049889.314  -1609487.292   6162405.935
10 0 59636  40500.00000  0  -2194712.255   -681319.905   6676964.379
10 0 59636  40680.00000  0  -1235635.225    247721.648   6947833.870
10 0 59636  40860.00000  0   -207875.385   1141712.230   6965232.885
10 0 59636  41040.00000  0    849980.841   1966976.023   6728539.928
10 0 59636  41220.00000  0   1897411.663   2693343.106   6246313.336
10 0 59636  41400.00000  0   2893495.265   3295246.815   5536005.846
10 0 59636  41580.00000  0   3798501.740   3752633.584   4623380.803
10 0 59636  41760.00000  0   4575486.051   4051652.028   3541627.483
10 0 59636  41940.00000  0   5191822.590   4185095.094   2330199.304
10 0 59636  42120.00000  0   5620612.392   4152568.542   1033389.046
10 0 59636  42300.00000  0   5841886.183   3960370.685   -301302.863
10 0 59636  42480.00000  0   5843537.845   3621085.507  -1624947.549
10 0 59636  42660.00000  0   5621933.664   3152906.324  -2889030.699
10 0 59636  42840.00000  0   5182166.296   2578728.009  -4047274.693
10 0 59636  43020.00000  0   4537945.223   1925057.682  -5057362.146
10 0 59636  43200.00000  0   3711127.159   1220797.716  -5882485.236
10 0 59636  43380.00000  0   2730922.133    495970.379  -6492658.691
10 0 59636  43560.00000  0   1632816.536   -219555.119  -6865763.544
10 0 59636  43740.00000  0    457265.510   -897280.849  -6988298.520
10 0 59636  43920.00000  0   -751800.959  -1511201.314  -6855831.832
10 0 59636  44100.00000  0  -1948606.617  -2038787.289  -6473145.890
10 0 59636  44280.00000  0  -3087244.487  -2461807.265  -5854079.481
10 0 59636  44460.00000  0  -4123426.054  -2766960.711  -5021066.666
10 0 59636  44640.00000  0  -5016215.888  -2946306.221  -4004378.327
10 0 59636  44820.00000  0  -5729683.369  -2997463.608  -2841067.446
10 0 59636  45000.00000  0  -6234398.787  -2923577.563  -1573644.690
10 0 59636  45180.00000  0  -6508699.137  -2733040.606   -248522.413
10 0 59636  45360.00000  0  -6539654.839  -2438984.638   1085714.397
10 0 59636  45540.00000  0  -6323681.928  -2058564.741   2380138.763
10 0 59636  45720.00000  0  -5866758.377  -1612071.721   3587329.569
10 0 59636  45900.00000  0  -5184239.133  -1121922.526   4663147.039
10 0 59636  46080.00000  0  -4300280.832   -611582.329   5568358.685
10 0 59636  46260.00000  0  -3246923.230   -104478.255   6270047.697
10 0 59636  46440.00000  0  -2062873.870    377046.320   6742770.996
10 0 59636  46620.00000  0   -792048.015    812688.686   6969430.132
10 0 59636  46800.00000  0    518069.959   1185019.615   6941842.368
10 0 59636  46980.00000  0   1818187.441   1480167.364   6661009.601
10 0 59636  47160.00000  0   3059036.955   1688330.685   6137084.414
10 0 59636  47340.00000  0   4193229.335   1804103.773   5389033.707
10 0 59636  47520.00000  0   5177068.427   1826603.989   4443999.568
10 0 59636  47700.00000  0   5972265.435   1759400.121   3336369.563
10 0 59636  47880.00000  0   6547485.320   1610239.245   2106559.840
10 0 59636  48060.00000  0   6879643.525   1390580.374    799552.556
10 0 59636  48240.00000  0   6954890.139   1114956.444   -536766.851
10 0 59636  48420.00000  0   6769221.329    800194.868  -1853405.514
10 0 59636  48600.00000  0   6328678.554    464533.322  -3102109.713
10 0 59636  48780.00000  0   5649129.314    126680.080  -4237177.090
10 0 59636  48960.00000  0   4755640.146   -195128.599  -5217155.542
10 0 59636  49140.00000  0   3681481.061   -484025.886  -6006350.920
10 0 59636  49320.00000  0   2466825.399   -725323.287  -6576096.093
10 0 59636  49500.00000  0   1157201.960   -907196.323  -6905745.590
10 0 59636  49680.00000  0   -198229.032  -1021219.698  -6983373.924
10 0 59636  49860.00000  0  -1548516.707  -1062732.894  -6806173.233
10 0 59636  50040.00000  0  -2842817.542  -1031025.156  -6380545.770
10 0 59636  50220.00000  0  -4032292.256   -929334.275  -5721888.807
10 0 59636  50400.00000  0  -5071945.988   -764660.759  -4854082.546
10 0 59636  50580.00000  0  -5922357.808   -547402.503  -3808677.135
10 0 59636  50760.00000  0  -6551228.371   -290822.796  -2623790.961
10 0 59636  50940.00000  0  -6934676.698    -10370.628  -1342742.883
10 0 59636  51120.00000  0  -7058218.536    277116.406    -12460.875
10 0 59636  51300.00000  0  -6917361.424    554288.564   1318276.560
10 0 59636  51480.00000  0  -6517782.368    804191.890   2600677.359
10 0 59636  51660.00000  0  -5875082.755   1011158.701   3787775.463
10 0 59636  51840.00000  0  -5014127.280   1161633.899   4836186.224
10 0 59636  52020.00000  0  -3968012.470   1244893.803   5707695.922
10 0 59636  52200.00000  0  -2776730.209   1253623.142   6370629.261
10 0 59636  52380.00000  0  -1485590.745   1184327.089   6800959.775
10 0 59636  52560.00000  0   -143470.035   1037562.908   6983129.012
10 0 59636  52740.00000  0   1199039.463    817982.354   6910561.163
10 0 59636  52920.00000  0   2491515.322    534185.532   6585879.173
10 0 59636  53100.00000  0   3685577.786    198390.968   6020819.834
10 0 59636  53280.00000  0   4736695.514   -174069.952   5235845.356
10 0 59636  53460.00000  0   5605863.402   -565419.127   4259451.617
99
